ORBCOMM FM33 [-]        
1 25983U 99065D   23279.66242483  .00002681  00000+0  94682-3 0  9992
2 25983  45.0295  56.3054 0009796 189.6586 184.8401 14.36795486246877
ORBCOMM FM36 [-]        
1 25984U 99065E   23280.49129259  .00001846  00000+0  69573-3 0  9994
2 25984  45.0392 134.1662 0003954  70.5885 289.5390 14.34678041245476
ORBCOMM FM35 [+]        
1 25985U 99065F   23280.54993469  .00001761  00000+0  67002-3 0  9994
2 25985  45.0391 135.9575 0002571 178.9598 181.1255 14.34385117245887
ORBCOMM FM34 [-]        
1 25986U 99065G   23280.02620959  .00001849  00000+0  70163-3 0  9998
2 25986  45.0387 138.8956 0003627 113.7518 246.3710 14.34330396245924
ORBCOMM FM38 [-]        
1 33060U 08031A   23280.53096615  .00003846  00000+0  58000-3 0  9990
2 33060  48.4427  10.7261 0006364 269.6526  90.3658 14.76136631823197
ORBCOMM FM41 [-]        
1 33061U 08031B   23280.54190058  .00003953  00000+0  59866-3 0  9998
2 33061  48.4464  16.8135 0005481 257.4973 116.4326 14.75903577822715
ORBCOMM FM29 [-]        
1 33062U 08031C   23280.58387473  .00004161  00000+0  63027-3 0  9998
2 33062  48.4414  24.5919 0007372 255.5867 118.0058 14.75781699822639
ORBCOMM FM39 [-]        
1 33063U 08031D   23280.54893474  .00003914  00000+0  60610-3 0  9998
2 33063  48.4423  43.7843 0008217 233.2892 126.7266 14.74940435822348
